ONEWEB-0189             
1 48217U 21031H   25283.19232542 -.00000166  00000+0 -48108-3 0  9995
2 48217  87.9050 339.4893 0002215 104.7140 255.4235 13.14502944215387
ONEWEB-0196             
1 48218U 21031J   25283.17012316  .00000048  00000+0  95266-4 0  9994
2 48218  87.9051 339.5094 0002041  99.4551 260.6809 13.14502434215385
ONEWEB-0183             
1 48219U 21031K   25283.22087371  .00000143  00000+0  35127-3 0  9999
2 48219  87.9045 339.5080 0001916  91.8909 268.2441 13.14501003215485
ONEWEB-0185             
1 48220U 21031L   25283.17091032 -.00000030  00000+0 -11491-3 0  9999
2 48220  87.9054 339.4856 0002216  90.9823 269.1561 13.14503535215403
ONEWEB-0187             
1 48221U 21031M   25283.22708569  .00000217  00000+0  55036-3 0  9994
2 48221  87.9053 339.5209 0002166  96.7300 263.4076 13.14503148215424
ONEWEB-0192             
1 48222U 21031N   25283.19708132 -.00000148  00000+0 -43356-3 0  9994
2 48222  87.9044 339.5190 0001981 100.5768 259.5585 13.14501803215337
ONEWEB-0219             
1 48223U 21031P   25283.17646593 -.00000027  00000+0 -10636-3 0  9996
2 48223  87.9054 339.4963 0002121  94.7867 265.3505 13.14502127215536
ONEWEB-0202             
1 48224U 21031Q   25283.23356149  .00000255  00000+0  65219-3 0  9997
2 48224  87.9054 339.4996 0002430 113.1587 246.9799 13.14501587215529
ONEWEB-0204             
1 48225U 21031R   25283.19152616 -.00000156  00000+0 -45426-3 0  9996
2 48225  87.9045 339.4959 0001854  88.9129 271.2213 13.14502296215417
ONEWEB-0205             
1 48226U 21031S   25283.24307266  .00000062  00000+0  13346-3 0  9996
2 48226  87.9054 339.4781 0002102  96.2378 263.8991 13.14501958215432
ONEWEB-0206             
1 48227U 21031T   25283.21611210  .00000210  00000+0  53238-3 0  9990
2 48227  87.9059 339.4683 0001641 103.0492 257.0821 13.14502941215384
ONEWEB-0182             
1 48228U 21031U   25283.21135761  .00000135  00000+0  32904-3 0  9996
2 48228  87.9044 339.5099 0001914  90.9027 269.2322 13.14501944215598
ONEWEB-0186             
1 48229U 21031V   25283.22245472  .00000294  00000+0  75757-3 0  9998
2 48229  87.9060 339.4735 0002054  98.7860 261.3502 13.14501035215549
ONEWEB-0181             
1 48230U 21031W   25283.20025688 -.00000050  00000+0 -16976-3 0  9993
2 48230  87.9041 339.5431 0002068 101.1269 259.0093 13.14502107215394
ONEWEB-0188             
1 48231U 21031X   25283.16219197  .00000163  00000+0  40643-3 0  9990
2 48231  87.9053 339.5459 0001882  96.9616 263.1728 13.14502577215299
ONEWEB-0220             
1 48232U 21031Y   25283.20184034 -.00000095  00000+0 -29168-3 0  9992
2 48232  87.9053 339.4779 0002121  94.9729 265.1643 13.14504200215567
