[{"OBJECT_NAME":"ONEWEB-0189","OBJECT_ID":"2021-031H","EPOCH":"2025-10-10T04:36:56.916288","MEAN_MOTION":13.14502944,"ECCENTRICITY":0.00022154,"INCLINATION":87.905,"RA_OF_ASC_NODE":339.4893,"ARG_OF_PERICENTER":104.714,"MEAN_ANOMALY":255.4235,"EPHEMERIS_TYPE":0,"CLASSIFICATION_TYPE":"U","NORAD_CAT_ID":48217,"ELEMENT_SET_NO":999,"REV_AT_EPOCH":21538,"BSTAR":-0.00048108073,"MEAN_MOTION_DOT":-1.66e-6,"MEAN_MOTION_DDOT":0},{"OBJECT_NAME":"ONEWEB-0196","OBJECT_ID":"2021-031J","EPOCH":"2025-10-10T04:04:58.641024","MEAN_MOTION":13.14502434,"ECCENTRICITY":0.00020419,"INCLINATION":87.9051,"RA_OF_ASC_NODE":339.5094,"ARG_OF_PERICENTER":99.4551,"MEAN_ANOMALY":260.6809,"EPHEMERIS_TYPE":0,"CLASSIFICATION_TYPE":"U","NORAD_CAT_ID":48218,"ELEMENT_SET_NO":999,"REV_AT_EPOCH":21538,"BSTAR":9.5265614e-5,"MEAN_MOTION_DOT":4.8e-7,"MEAN_MOTION_DDOT":0},{"OBJECT_NAME":"ONEWEB-0183","OBJECT_ID":"2021-031K","EPOCH":"2025-10-10T05:18:03.488544","MEAN_MOTION":13.14501003,"ECCENTRICITY":0.00019162,"INCLINATION":87.9045,"RA_OF_ASC_NODE":339.508,"ARG_OF_PERICENTER":91.8909,"MEAN_ANOMALY":268.2441,"EPHEMERIS_TYPE":0,"CLASSIFICATION_TYPE":"U","NORAD_CAT_ID":48219,"ELEMENT_SET_NO":999,"REV_AT_EPOCH":21548,"BSTAR":0.00035126819,"MEAN_MOTION_DOT":1.43e-6,"MEAN_MOTION_DDOT":0},{"OBJECT_NAME":"ONEWEB-0185","OBJECT_ID":"2021-031L","EPOCH":"2025-10-10T04:06:06.651648","MEAN_MOTION":13.14503535,"ECCENTRICITY":0.00022161,"INCLINATION":87.9054,"RA_OF_ASC_NODE":339.4856,"ARG_OF_PERICENTER":90.9823,"MEAN_ANOMALY":269.1561,"EPHEMERIS_TYPE":0,"CLASSIFICATION_TYPE":"U","NORAD_CAT_ID":48220,"ELEMENT_SET_NO":999,"REV_AT_EPOCH":21540,"BSTAR":-0.00011491071,"MEAN_MOTION_DOT":-3.0e-7,"MEAN_MOTION_DDOT":0},{"OBJECT_NAME":"ONEWEB-0187","OBJECT_ID":"2021-031M","EPOCH":"2025-10-10T05:27:00.203616","MEAN_MOTION":13.14503148,"ECCENTRICITY":0.00021664,"INCLINATION":87.9053,"RA_OF_ASC_NODE":339.5209,"ARG_OF_PERICENTER":96.73,"MEAN_ANOMALY":263.4076,"EPHEMERIS_TYPE":0,"CLASSIFICATION_TYPE":"U","NORAD_CAT_ID":48221,"ELEMENT_SET_NO":999,"REV_AT_EPOCH":21542,"BSTAR":0.00055036383,"MEAN_MOTION_DOT":2.17e-6,"MEAN_MOTION_DDOT":0},{"OBJECT_NAME":"ONEWEB-0192","OBJECT_ID":"2021-031N","EPOCH":"2025-10-10T04:43:47.826048","MEAN_MOTION":13.14501803,"ECCENTRICITY":0.00019813,"INCLINATION":87.9044,"RA_OF_ASC_NODE":339.519,"ARG_OF_PERICENTER":100.5768,"MEAN_ANOMALY":259.5585,"EPHEMERIS_TYPE":0,"CLASSIFICATION_TYPE":"U","NORAD_CAT_ID":48222,"ELEMENT_SET_NO":999,"REV_AT_EPOCH":21533,"BSTAR":-0.00043355574,"MEAN_MOTION_DOT":-1.48e-6,"MEAN_MOTION_DDOT":0},{"OBJECT_NAME":"ONEWEB-0219","OBJECT_ID":"2021-031P","EPOCH":"2025-10-10T04:14:06.656352","MEAN_MOTION":13.14502127,"ECCENTRICITY":0.00021211,"INCLINATION":87.9054,"RA_OF_ASC_NODE":339.4963,"ARG_OF_PERICENTER":94.7867,"MEAN_ANOMALY":265.3505,"EPHEMERIS_TYPE":0,"CLASSIFICATION_TYPE":"U","NORAD_CAT_ID":48223,"ELEMENT_SET_NO":999,"REV_AT_EPOCH":21553,"BSTAR":-0.00010635777,"MEAN_MOTION_DOT":-2.7e-7,"MEAN_MOTION_DDOT":0},{"OBJECT_NAME":"ONEWEB-0202","OBJECT_ID":"2021-031Q","EPOCH":"2025-10-10T05:36:19.712736","MEAN_MOTION":13.14501587,"ECCENTRICITY":0.00024304,"INCLINATION":87.9054,"RA_OF_ASC_NODE":339.4996,"ARG_OF_PERICENTER":113.1587,"MEAN_ANOMALY":246.9799,"EPHEMERIS_TYPE":0,"CLASSIFICATION_TYPE":"U","NORAD_CAT_ID":48224,"ELEMENT_SET_NO":999,"REV_AT_EPOCH":21552,"BSTAR":0.00065218856,"MEAN_MOTION_DOT":2.55e-6,"MEAN_MOTION_DDOT":0},{"OBJECT_NAME":"ONEWEB-0204","OBJECT_ID":"2021-031R","EPOCH":"2025-10-10T04:35:47.860224","MEAN_MOTION":13.14502296,"ECCENTRICITY":0.00018542,"INCLINATION":87.9045,"RA_OF_ASC_NODE":339.4959,"ARG_OF_PERICENTER":88.9129,"MEAN_ANOMALY":271.2213,"EPHEMERIS_TYPE":0,"CLASSIFICATION_TYPE":"U","NORAD_CAT_ID":48225,"ELEMENT_SET_NO":999,"REV_AT_EPOCH":21541,"BSTAR":-0.00045426471,"MEAN_MOTION_DOT":-1.56e-6,"MEAN_MOTION_DDOT":0},{"OBJECT_NAME":"ONEWEB-0205","OBJECT_ID":"2021-031S","EPOCH":"2025-10-10T05:50:01.477824","MEAN_MOTION":13.14501958,"ECCENTRICITY":0.0002102,"INCLINATION":87.9054,"RA_OF_ASC_NODE":339.4781,"ARG_OF_PERICENTER":96.2378,"MEAN_ANOMALY":263.8991,"EPHEMERIS_TYPE":0,"CLASSIFICATION_TYPE":"U","NORAD_CAT_ID":48226,"ELEMENT_SET_NO":999,"REV_AT_EPOCH":21543,"BSTAR":0.00013346234,"MEAN_MOTION_DOT":6.2e-7,"MEAN_MOTION_DDOT":0},{"OBJECT_NAME":"ONEWEB-0206","OBJECT_ID":"2021-031T","EPOCH":"2025-10-10T05:11:12.085440","MEAN_MOTION":13.14502941,"ECCENTRICITY":0.00016415,"INCLINATION":87.9059,"RA_OF_ASC_NODE":339.4683,"ARG_OF_PERICENTER":103.0492,"MEAN_ANOMALY":257.0821,"EPHEMERIS_TYPE":0,"CLASSIFICATION_TYPE":"U","NORAD_CAT_ID":48227,"ELEMENT_SET_NO":999,"REV_AT_EPOCH":21538,"BSTAR":0.00053237844,"MEAN_MOTION_DOT":2.1e-6,"MEAN_MOTION_DDOT":0},{"OBJECT_NAME":"ONEWEB-0182","OBJECT_ID":"2021-031U","EPOCH":"2025-10-10T05:04:21.297504","MEAN_MOTION":13.14501944,"ECCENTRICITY":0.0001914,"INCLINATION":87.9044,"RA_OF_ASC_NODE":339.5099,"ARG_OF_PERICENTER":90.9027,"MEAN_ANOMALY":269.2322,"EPHEMERIS_TYPE":0,"CLASSIFICATION_TYPE":"U","NORAD_CAT_ID":48228,"ELEMENT_SET_NO":999,"REV_AT_EPOCH":21559,"BSTAR":0.00032903627,"MEAN_MOTION_DOT":1.35e-6,"MEAN_MOTION_DDOT":0},{"OBJECT_NAME":"ONEWEB-0186","OBJECT_ID":"2021-031V","EPOCH":"2025-10-10T05:20:20.087808","MEAN_MOTION":13.14501035,"ECCENTRICITY":0.00020542,"INCLINATION":87.906,"RA_OF_ASC_NODE":339.4735,"ARG_OF_PERICENTER":98.786,"MEAN_ANOMALY":261.3502,"EPHEMERIS_TYPE":0,"CLASSIFICATION_TYPE":"U","NORAD_CAT_ID":48229,"ELEMENT_SET_NO":999,"REV_AT_EPOCH":21554,"BSTAR":0.00075756504,"MEAN_MOTION_DOT":2.94e-6,"MEAN_MOTION_DDOT":0},{"OBJECT_NAME":"ONEWEB-0181","OBJECT_ID":"2021-031W","EPOCH":"2025-10-10T04:48:22.194432","MEAN_MOTION":13.14502107,"ECCENTRICITY":0.00020684,"INCLINATION":87.9041,"RA_OF_ASC_NODE":339.5431,"ARG_OF_PERICENTER":101.1269,"MEAN_ANOMALY":259.0093,"EPHEMERIS_TYPE":0,"CLASSIFICATION_TYPE":"U","NORAD_CAT_ID":48230,"ELEMENT_SET_NO":999,"REV_AT_EPOCH":21539,"BSTAR":-0.00016975821,"MEAN_MOTION_DOT":-5.0e-7,"MEAN_MOTION_DDOT":0},{"OBJECT_NAME":"ONEWEB-0188","OBJECT_ID":"2021-031X","EPOCH":"2025-10-10T03:53:33.386208","MEAN_MOTION":13.14502577,"ECCENTRICITY":0.00018823,"INCLINATION":87.9053,"RA_OF_ASC_NODE":339.5459,"ARG_OF_PERICENTER":96.9616,"MEAN_ANOMALY":263.1728,"EPHEMERIS_TYPE":0,"CLASSIFICATION_TYPE":"U","NORAD_CAT_ID":48231,"ELEMENT_SET_NO":999,"REV_AT_EPOCH":21529,"BSTAR":0.00040643304,"MEAN_MOTION_DOT":1.63e-6,"MEAN_MOTION_DDOT":0},{"OBJECT_NAME":"ONEWEB-0220","OBJECT_ID":"2021-031Y","EPOCH":"2025-10-10T04:50:39.005376","MEAN_MOTION":13.145042,"ECCENTRICITY":0.00021211,"INCLINATION":87.9053,"RA_OF_ASC_NODE":339.4779,"ARG_OF_PERICENTER":94.9729,"MEAN_ANOMALY":265.1643,"EPHEMERIS_TYPE":0,"CLASSIFICATION_TYPE":"U","NORAD_CAT_ID":48232,"ELEMENT_SET_NO":999,"REV_AT_EPOCH":21556,"BSTAR":-0.00029168095,"MEAN_MOTION_DOT":-9.5e-7,"MEAN_MOTION_DDOT":0}]
